CCSDS_OMM_VERS = 2.0
CREATION_DATE  = 
ORIGINATOR     = 

OBJECT_NAME    = ATLAS CENTAUR R/B
OBJECT_ID      = 1972-065B
CENTER_NAME    = EARTH
REF_FRAME      = TEME
TIME_SYSTEM    = UTC
MEAN_ELEMENT_THEORY = SGP/SGP4

EPOCH          = 2025-12-11T17:07:35.893632
MEAN_MOTION    = 14.77404821
ECCENTRICITY   = .0034049
INCLINATION    = 35.0010
RA_OF_ASC_NODE = 101.2077
ARG_OF_PERICENTER = 349.0024
MEAN_ANOMALY   = 10.9930

EPHEMERIS_TYPE = 0
CLASSIFICATION_TYPE = U
NORAD_CAT_ID   = 6155
ELEMENT_SET_NO = 999
REV_AT_EPOCH   = 82824
BSTAR          = .325785E-3
MEAN_MOTION_DOT = .2355E-4
MEAN_MOTION_DDOT = 0

CCSDS_OMM_VERS = 2.0
CREATION_DATE  = 
ORIGINATOR     = 

OBJECT_NAME    = SL-8 R/B
OBJECT_ID      = 1975-112B
CENTER_NAME    = EARTH
REF_FRAME      = TEME
TIME_SYSTEM    = UTC
MEAN_ELEMENT_THEORY = SGP/SGP4

EPOCH          = 2025-12-11T23:53:58.975008
MEAN_MOTION    = 14.38144450
ECCENTRICITY   = .00165957
INCLINATION    = 74.0592
RA_OF_ASC_NODE = 180.2267
ARG_OF_PERICENTER = 291.6176
MEAN_ANOMALY   = 68.3210

EPHEMERIS_TYPE = 0
CLASSIFICATION_TYPE = U
NORAD_CAT_ID   = 8459
ELEMENT_SET_NO = 999
REV_AT_EPOCH   = 61926
BSTAR          = .15649236E-3
MEAN_MOTION_DOT = .449E-5
MEAN_MOTION_DDOT = 0

CCSDS_OMM_VERS = 2.0
CREATION_DATE  = 
ORIGINATOR     = 

OBJECT_NAME    = SL-3 R/B
OBJECT_ID      = 1977-057B
CENTER_NAME    = EARTH
REF_FRAME      = TEME
TIME_SYSTEM    = UTC
MEAN_ELEMENT_THEORY = SGP/SGP4

EPOCH          = 2025-12-11T23:28:02.695008
MEAN_MOTION    = 15.42917274
ECCENTRICITY   = .00064879
INCLINATION    = 97.5685
RA_OF_ASC_NODE = 149.2759
ARG_OF_PERICENTER = 236.0339
MEAN_ANOMALY   = 124.0292

EPHEMERIS_TYPE = 0
CLASSIFICATION_TYPE = U
NORAD_CAT_ID   = 10114
ELEMENT_SET_NO = 999
REV_AT_EPOCH   = 65479
BSTAR          = .39359287E-3
MEAN_MOTION_DOT = .17236E-3
MEAN_MOTION_DDOT = 0

CCSDS_OMM_VERS = 2.0
CREATION_DATE  = 
ORIGINATOR     = 

OBJECT_NAME    = SEASAT 1
OBJECT_ID      = 1978-064A
CENTER_NAME    = EARTH
REF_FRAME      = TEME
TIME_SYSTEM    = UTC
MEAN_ELEMENT_THEORY = SGP/SGP4

EPOCH          = 2025-12-11T18:47:30.248736
MEAN_MOTION    = 14.46060370
ECCENTRICITY   = .00016537
INCLINATION    = 108.0115
RA_OF_ASC_NODE = 301.0267
ARG_OF_PERICENTER = 250.1733
MEAN_ANOMALY   = 109.9234

EPHEMERIS_TYPE = 0
CLASSIFICATION_TYPE = U
NORAD_CAT_ID   = 10967
ELEMENT_SET_NO = 999
REV_AT_EPOCH   = 49380
BSTAR          = .24718912E-3
MEAN_MOTION_DOT = .746E-5
MEAN_MOTION_DDOT = 0

CCSDS_OMM_VERS = 2.0
CREATION_DATE  = 
ORIGINATOR     = 

OBJECT_NAME    = SL-14 R/B
OBJECT_ID      = 1979-011B
CENTER_NAME    = EARTH
REF_FRAME      = TEME
TIME_SYSTEM    = UTC
MEAN_ELEMENT_THEORY = SGP/SGP4

EPOCH          = 2025-12-11T23:35:42.107136
MEAN_MOTION    = 14.91768148
ECCENTRICITY   = .00159768
INCLINATION    = 82.5235
RA_OF_ASC_NODE = 179.7620
ARG_OF_PERICENTER = 356.0233
MEAN_ANOMALY   = 4.0857

EPHEMERIS_TYPE = 0
CLASSIFICATION_TYPE = U
NORAD_CAT_ID   = 11267
ELEMENT_SET_NO = 999
REV_AT_EPOCH   = 51570
BSTAR          = .88260559E-4
MEAN_MOTION_DOT = .916E-5
MEAN_MOTION_DDOT = 0

CCSDS_OMM_VERS = 2.0
CREATION_DATE  = 
ORIGINATOR     = 

OBJECT_NAME    = SL-8 R/B
OBJECT_ID      = 1979-089B
CENTER_NAME    = EARTH
REF_FRAME      = TEME
TIME_SYSTEM    = UTC
MEAN_ELEMENT_THEORY = SGP/SGP4

EPOCH          = 2025-12-11T22:25:47.046720
MEAN_MOTION    = 14.42283141
ECCENTRICITY   = .00144445
INCLINATION    = 74.0692
RA_OF_ASC_NODE = 253.4693
ARG_OF_PERICENTER = 88.2006
MEAN_ANOMALY   = 272.0805

EPHEMERIS_TYPE = 0
CLASSIFICATION_TYPE = U
NORAD_CAT_ID   = 11574
ELEMENT_SET_NO = 999
REV_AT_EPOCH   = 42345
BSTAR          = .15353242E-3
MEAN_MOTION_DOT = .481E-5
MEAN_MOTION_DDOT = 0

CCSDS_OMM_VERS = 2.0
CREATION_DATE  = 
ORIGINATOR     = 

OBJECT_NAME    = SL-14 R/B
OBJECT_ID      = 1980-005B
CENTER_NAME    = EARTH
REF_FRAME      = TEME
TIME_SYSTEM    = UTC
MEAN_ELEMENT_THEORY = SGP/SGP4

EPOCH          = 2025-12-11T14:28:20.023392
MEAN_MOTION    = 14.90789826
ECCENTRICITY   = .00173547
INCLINATION    = 82.5150
RA_OF_ASC_NODE = 30.7775
ARG_OF_PERICENTER = 96.8862
MEAN_ANOMALY   = 263.4332

EPHEMERIS_TYPE = 0
CLASSIFICATION_TYPE = U
NORAD_CAT_ID   = 11672
ELEMENT_SET_NO = 999
REV_AT_EPOCH   = 46336
BSTAR          = .85113121E-4
MEAN_MOTION_DOT = .864E-5
MEAN_MOTION_DDOT = 0

CCSDS_OMM_VERS = 2.0
CREATION_DATE  = 
ORIGINATOR     = 

OBJECT_NAME    = SL-8 R/B
OBJECT_ID      = 1981-003B
CENTER_NAME    = EARTH
REF_FRAME      = TEME
TIME_SYSTEM    = UTC
MEAN_ELEMENT_THEORY = SGP/SGP4

EPOCH          = 2025-12-12T00:10:28.887456
MEAN_MOTION    = 15.07003543
ECCENTRICITY   = .02797056
INCLINATION    = 82.9299
RA_OF_ASC_NODE = 10.8776
ARG_OF_PERICENTER = 122.7454
MEAN_ANOMALY   = 240.1069

EPHEMERIS_TYPE = 0
CLASSIFICATION_TYPE = U
NORAD_CAT_ID   = 12139
ELEMENT_SET_NO = 999
REV_AT_EPOCH   = 30145
BSTAR          = .54111328E-3
MEAN_MOTION_DOT = .20409E-3
MEAN_MOTION_DDOT = 0

CCSDS_OMM_VERS = 2.0
CREATION_DATE  = 
ORIGINATOR     = 

OBJECT_NAME    = SL-3 R/B
OBJECT_ID      = 1981-046B
CENTER_NAME    = EARTH
REF_FRAME      = TEME
TIME_SYSTEM    = UTC
MEAN_ELEMENT_THEORY = SGP/SGP4

EPOCH          = 2025-12-11T21:56:51.555840
MEAN_MOTION    = 15.39578847
ECCENTRICITY   = .00189047
INCLINATION    = 81.2332
RA_OF_ASC_NODE = 34.9251
ARG_OF_PERICENTER = 327.3780
MEAN_ANOMALY   = 32.6292

EPHEMERIS_TYPE = 0
CLASSIFICATION_TYPE = U
NORAD_CAT_ID   = 12465
ELEMENT_SET_NO = 999
REV_AT_EPOCH   = 42491
BSTAR          = .38452209E-3
MEAN_MOTION_DOT = .15262E-3
MEAN_MOTION_DDOT = 0

CCSDS_OMM_VERS = 2.0
CREATION_DATE  = 
ORIGINATOR     = 

OBJECT_NAME    = SL-3 R/B
OBJECT_ID      = 1981-103B
CENTER_NAME    = EARTH
REF_FRAME      = TEME
TIME_SYSTEM    = UTC
MEAN_ELEMENT_THEORY = SGP/SGP4

EPOCH          = 2025-12-12T00:02:39.047712
MEAN_MOTION    = 15.20217891
ECCENTRICITY   = .00115946
INCLINATION    = 81.1592
RA_OF_ASC_NODE = 316.2180
ARG_OF_PERICENTER = 215.4319
MEAN_ANOMALY   = 144.6143

EPHEMERIS_TYPE = 0
CLASSIFICATION_TYPE = U
NORAD_CAT_ID   = 12904
ELEMENT_SET_NO = 999
REV_AT_EPOCH   = 95990
BSTAR          = .45280489E-3
MEAN_MOTION_DOT = .9858E-4
MEAN_MOTION_DDOT = 0

CCSDS_OMM_VERS = 2.0
CREATION_DATE  = 
ORIGINATOR     = 

OBJECT_NAME    = SL-3 R/B
OBJECT_ID      = 1982-013B
CENTER_NAME    = EARTH
REF_FRAME      = TEME
TIME_SYSTEM    = UTC
MEAN_ELEMENT_THEORY = SGP/SGP4

EPOCH          = 2025-12-11T23:39:15.060672
MEAN_MOTION    = 15.21074044
ECCENTRICITY   = .00240972
INCLINATION    = 81.1748
RA_OF_ASC_NODE = 263.4921
ARG_OF_PERICENTER = 113.2626
MEAN_ANOMALY   = 247.1146

EPHEMERIS_TYPE = 0
CLASSIFICATION_TYPE = U
NORAD_CAT_ID   = 13068
ELEMENT_SET_NO = 999
REV_AT_EPOCH   = 39101
BSTAR          = .35313727E-3
MEAN_MOTION_DOT = .7935E-4
MEAN_MOTION_DDOT = 0

CCSDS_OMM_VERS = 2.0
CREATION_DATE  = 
ORIGINATOR     = 

OBJECT_NAME    = SL-3 R/B
OBJECT_ID      = 1982-039B
CENTER_NAME    = EARTH
REF_FRAME      = TEME
TIME_SYSTEM    = UTC
MEAN_ELEMENT_THEORY = SGP/SGP4

EPOCH          = 2025-12-11T23:26:04.003872
MEAN_MOTION    = 15.09518646
ECCENTRICITY   = .00297183
INCLINATION    = 81.1723
RA_OF_ASC_NODE = 316.9754
ARG_OF_PERICENTER = 254.9404
MEAN_ANOMALY   = 104.8532

EPHEMERIS_TYPE = 0
CLASSIFICATION_TYPE = U
NORAD_CAT_ID   = 13154
ELEMENT_SET_NO = 999
REV_AT_EPOCH   = 36840
BSTAR          = .29841308E-3
MEAN_MOTION_DOT = .4855E-4
MEAN_MOTION_DDOT = 0

