ATLAS CENTAUR R/B       
1 06155U 72065B   25345.71360988  .00002355  00000+0  32578-3 0  9990
2 06155  35.0010 101.2077 0034049 349.0024  10.9930 14.77404821828242
SL-8 R/B                
1 08459U 75112B   25345.99582147  .00000449  00000+0  15649-3 0  9990
2 08459  74.0592 180.2267 0016595 291.6176  68.3210 14.38144450619267
SL-3 R/B                
1 10114U 77057B   25345.97780897  .00017236  00000+0  39359-3 0  9997
2 10114  97.5685 149.2759 0006487 236.0339 124.0292 15.42917274654790
SEASAT 1                
1 10967U 78064A   25345.78298899  .00000746  00000+0  24719-3 0  9999
2 10967 108.0115 301.0267 0001653 250.1733 109.9234 14.46060370493809
SL-14 R/B               
1 11267U 79011B   25345.98312624  .00000916  00000+0  88261-4 0  9993
2 11267  82.5235 179.7620 0015976 356.0233   4.0857 14.91768148515707
SL-8 R/B                
1 11574U 79089B   25345.93457230  .00000481  00000+0  15353-3 0  9995
2 11574  74.0692 253.4693 0014444  88.2006 272.0805 14.42283141423453
SL-14 R/B               
1 11672U 80005B   25345.60300953  .00000864  00000+0  85113-4 0  9994
2 11672  82.5150  30.7775 0017354  96.8862 263.4332 14.90789826463367
SL-8 R/B                
1 12139U 81003B   25346.00727879  .00020409  00000+0  54111-3 0  9997
2 12139  82.9299  10.8776 0279705 122.7454 240.1069 15.07003543301454
SL-3 R/B                
1 12465U 81046B   25345.91448560  .00015262  00000+0  38452-3 0  9993
2 12465  81.2332  34.9251 0018904 327.3780  32.6292 15.39578847424916
SL-3 R/B                
1 12904U 81103B   25346.00184083  .00009858  00000+0  45280-3 0  9994
2 12904  81.1592 316.2180 0011594 215.4319 144.6143 15.20217891959901
SL-3 R/B                
1 13068U 82013B   25345.98559098  .00007935  00000+0  35314-3 0  9996
2 13068  81.1748 263.4921 0024097 113.2626 247.1146 15.21074044391016
SL-3 R/B                
1 13154U 82039B   25345.97643523  .00004855  00000+0  29841-3 0  9992
2 13154  81.1723 316.9754 0029718 254.9404 104.8532 15.09518646368407
